{
    "links": {
        "self": "http://www.neowsapp.com/rest/v1/neo/54016995?api_key=iIulBulltgU6a56xZRHN4H3l9WmuAYTsLGpBGhQ2"
    },
    "id": "54016995",
    "neo_reference_id": "54016995",
    "name": "(2020 JJ1)",
    "designation": "2020 JJ1",
    "nasa_jpl_url": "http://ssd.jpl.nasa.gov/sbdb.cgi?sstr=54016995",
    "absolute_magnitude_h": 23.461,
    "estimated_diameter": {
        "kilometers": {
            "estimated_diameter_min": 0.0539951779,
            "estimated_diameter_max": 0.1207368883
        },
        "meters": {
            "estimated_diameter_min": 53.9951779259,
            "estimated_diameter_max": 120.7368882995
        },
        "miles": {
            "estimated_diameter_min": 0.0335510377,
            "estimated_diameter_max": 0.075022401
        },
        "feet": {
            "estimated_diameter_min": 177.1495395464,
            "estimated_diameter_max": 396.1184126086
        }
    },
    "is_potentially_hazardous_asteroid": false,
    "close_approach_data": [
        {
            "close_approach_date": "2020-05-03",
            "close_approach_date_full": "2020-May-03 03:25",
            "epoch_date_close_approach": 1588476300000,
            "relative_velocity": {
                "kilometers_per_second": "20.9811176324",
                "kilometers_per_hour": "75532.0234767268",
                "miles_per_hour": "46932.6620319695"
            },
            "miss_distance": {
                "astronomical": "0.1304611584",
                "lunar": "50.7493906176",
                "kilometers": "19516711.414372608",
                "miles": "12127122.1307656704"
            },
            "orbiting_body": "Earth"
        }
    ],
    "orbital_data": {
        "orbit_id": "4",
        "orbit_determination_date": "2020-05-19 07:09:49",
        "first_observation_date": "2020-05-13",
        "last_observation_date": "2020-05-19",
        "data_arc_in_days": 6,
        "observations_used": 28,
        "orbit_uncertainty": "9",
        "minimum_orbit_intersection": ".128032",
        "jupiter_tisserand_invariant": "5.061",
        "epoch_osculation": "2458984.5",
        "eccentricity": ".4178211807748207",
        "semi_major_axis": "1.191990014216596",
        "inclination": "36.82277264668861",
        "ascending_node_longitude": "229.0742577682235",
        "orbital_period": "475.3432734387088",
        "perihelion_distance": ".6939513390048224",
        "perihelion_argument": "247.0962838184948",
        "aphelion_distance": "1.690028689428369",
        "perihelion_time": "2458896.739192689896",
        "mean_anomaly": "66.46542066974507",
        "mean_motion": ".7573474163118009",
        "equinox": "J2000",
        "orbit_class": {
            "orbit_class_type": "APO",
            "orbit_class_description": "Near-Earth asteroid orbits which cross the Earth’s orbit similar to that of 1862 Apollo",
            "orbit_class_range": "a (semi-major axis) > 1.0 AU; q (perihelion) < 1.017 AU"
        }
    },
    "is_sentry_object": false
}